{"type": "FeatureCollection", "features": [{"type": "Feature", "properties": {"norad_id": 36828, "name": "BEIDOU-2 IGSO-1 (C06)", "group": "beidou", "lat": 20.20972083294918, "lon": -30.699763351294614, "alt_km": 35677.508293365565, "timestamp": "2025-12-08T08:59:01.030768+00:00", "meta": {"OBJECT_NAME": "BEIDOU-2 IGSO-1 (C06)", "OBJECT_ID": "2010-036A", "EPOCH": "2025-12-07T22:42:27.537984", "MEAN_MOTION": 1.00277452, "ECCENTRICITY": 0.00512392, "INCLINATION": 54.2867, "RA_OF_ASC_NODE": 164.691, "ARG_OF_PERICENTER": 215.8688, "MEAN_ANOMALY": 144.8467, "EPHEMERIS_TYPE": 0, "CLASSIFICATION_TYPE": "U", "NORAD_CAT_ID": 36828, "ELEMENT_SET_NO": 999, "REV_AT_EPOCH": 5618, "BSTAR": 0, "MEAN_MOTION_DOT": -6.8e-07, "MEAN_MOTION_DDOT": 0}, "tle": {"line1": "1 36828U 10036A   25341.94615206 -.00000068  00000+0  00000+0 0  9998", "line2": "2 36828  54.2867 164.6910 0051239 215.8688 144.8467  1.00277452 56188"}}, "geometry": {"type": "Point", "coordinates": [-30.699763351294614, 20.20972083294918]}}, {"type": "Feature", "properties": {"norad_id": 37210, "name": "BEIDOU-2 G4 (C04)", "group": "beidou", "lat": -2.6705569373872367, "lon": 12.366075075246096, "alt_km": 35803.99193573435, "timestamp": "2025-12-08T08:59:01.030793+00:00", "meta": {"OBJECT_NAME": "BEIDOU-2 G4 (C04)", "OBJECT_ID": "2010-057A", "EPOCH": "2025-12-07T21:14:37.294368", "MEAN_MOTION": 1.00271448, "ECCENTRICITY": 0.001092, "INCLINATION": 3.1724, "RA_OF_ASC_NODE": 69.95, "ARG_OF_PERICENTER": 190.1489, "MEAN_ANOMALY": 295.5319, "EPHEMERIS_TYPE": 0, "CLASSIFICATION_TYPE": "U", "NORAD_CAT_ID": 37210, "ELEMENT_SET_NO": 999, "REV_AT_EPOCH": 5537, "BSTAR": 0, "MEAN_MOTION_DOT": -1.09e-06, "MEAN_MOTION_DDOT": 0}, "tle": {"line1": "1 37210U 10057A   25341.88515387 -.00000109  00000+0  00000+0 0  9995", "line2": "2 37210   3.1724  69.9500 0010920 190.1489 295.5319  1.00271448 55376"}}, "geometry": {"type": "Point", "coordinates": [12.366075075246096, -2.6705569373872367]}}, {"type": "Feature", "properties": {"norad_id": 37256, "name": "BEIDOU-2 IGSO-2 (C07)", "group": "beidou", "lat": 31.821533807741528, "lon": -51.7647185214281, "alt_km": 35982.82533713691, "timestamp": "2025-12-08T08:59:01.030809+00:00", "meta": {"OBJECT_NAME": "BEIDOU-2 IGSO-2 (C07)", "OBJECT_ID": "2010-068A", "EPOCH": "2025-12-03T17:22:36.030432", "MEAN_MOTION": 1.0028871, "ECCENTRICITY": 0.00492335, "INCLINATION": 47.9043, "RA_OF_ASC_NODE": 274.2613, "ARG_OF_PERICENTER": 216.1442, "MEAN_ANOMALY": 310.2369, "EPHEMERIS_TYPE": 0, "CLASSIFICATION_TYPE": "U", "NORAD_CAT_ID": 37256, "ELEMENT_SET_NO": 999, "REV_AT_EPOCH": 5483, "BSTAR": 0, "MEAN_MOTION_DOT": -2.25e-06, "MEAN_MOTION_DDOT": 0}, "tle": {"line1": "1 37256U 10068A   25337.72402813 -.00000225  00000+0  00000+0 0  9993", "line2": "2 37256  47.9043 274.2613 0049233 216.1442 310.2369  1.00288710 54839"}}, "geometry": {"type": "Point", "coordinates": [-51.7647185214281, 31.821533807741528]}}, {"type": "Feature", "properties": {"norad_id": 37384, "name": "BEIDOU-2 IGSO-3 (C08)", "group": "beidou", "lat": -61.07875808023386, "lon": -30.95490738770601, "alt_km": 35794.927725664085, "timestamp": "2025-12-08T08:59:01.030824+00:00", "meta": {"OBJECT_NAME": "BEIDOU-2 IGSO-3 (C08)", "OBJECT_ID": "2011-013A", "EPOCH": "2025-12-07T14:00:04.361184", "MEAN_MOTION": 1.00271436, "ECCENTRICITY": 0.0035334, "INCLINATION": 62.1366, "RA_OF_ASC_NODE": 41.9657, "ARG_OF_PERICENTER": 187.0582, "MEAN_ANOMALY": 165.2458, "EPHEMERIS_TYPE": 0, "CLASSIFICATION_TYPE": "U", "NORAD_CAT_ID": 37384, "ELEMENT_SET_NO": 999, "REV_AT_EPOCH": 5373, "BSTAR": 0, "MEAN_MOTION_DOT": -1.91e-06, "MEAN_MOTION_DDOT": 0}, "tle": {"line1": "1 37384U 11013A   25341.58338381 -.00000191  00000+0  00000+0 0  9995", "line2": "2 37384  62.1366  41.9657 0035334 187.0582 165.2458  1.00271436 53735"}}, "geometry": {"type": "Point", "coordinates": [-30.95490738770601, -61.07875808023386]}}, {"type": "Feature", "properties": {"norad_id": 37763, "name": "BEIDOU-2 IGSO-4 (C09)", "group": "beidou", "lat": 33.511419695952455, "lon": -40.77733709056019, "alt_km": 35802.74507391772, "timestamp": "2025-12-08T08:59:01.030837+00:00", "meta": {"OBJECT_NAME": "BEIDOU-2 IGSO-4 (C09)", "OBJECT_ID": "2011-038A", "EPOCH": "2025-12-01T12:32:09.960864", "MEAN_MOTION": 1.00284074, "ECCENTRICITY": 0.01487808, "INCLINATION": 54.5808, "RA_OF_ASC_NODE": 167.4476, "ARG_OF_PERICENTER": 230.2031, "MEAN_ANOMALY": 315.0387, "EPHEMERIS_TYPE": 0, "CLASSIFICATION_TYPE": "U", "NORAD_CAT_ID": 37763, "ELEMENT_SET_NO": 999, "REV_AT_EPOCH": 5266, "BSTAR": 0, "MEAN_MOTION_DOT": 1.01e-06, "MEAN_MOTION_DDOT": 0}, "tle": {"line1": "1 37763U 11038A   25335.52233751  .00000101  00000+0  00000+0 0  9995", "line2": "2 37763  54.5808 167.4476 0148780 230.2031 315.0387  1.00284074 52664"}}, "geometry": {"type": "Point", "coordinates": [-40.77733709056019, 33.511419695952455]}}, {"type": "Feature", "properties": {"norad_id": 37948, "name": "BEIDOU-2 IGSO-5 (C10)", "group": "beidou", "lat": 22.646407040836063, "lon": -64.10397464531096, "alt_km": 36234.03116829124, "timestamp": "2025-12-08T08:59:01.030850+00:00", "meta": {"OBJECT_NAME": "BEIDOU-2 IGSO-5 (C10)", "OBJECT_ID": "2011-073A", "EPOCH": "2025-12-07T19:12:14.882400", "MEAN_MOTION": 1.00291658, "ECCENTRICITY": 0.01104068, "INCLINATION": 48.0298, "RA_OF_ASC_NODE": 273.9181, "ARG_OF_PERICENTER": 222.1784, "MEAN_ANOMALY": 321.4594, "EPHEMERIS_TYPE": 0, "CLASSIFICATION_TYPE": "U", "NORAD_CAT_ID": 37948, "ELEMENT_SET_NO": 999, "REV_AT_EPOCH": 5121, "BSTAR": 0, "MEAN_MOTION_DOT": -1.91e-06, "MEAN_MOTION_DDOT": 0}, "tle": {"line1": "1 37948U 11073A   25341.80017225 -.00000191  00000+0  00000+0 0  9993", "line2": "2 37948  48.0298 273.9181 0110406 222.1784 321.4594  1.00291658 51212"}}, "geometry": {"type": "Point", "coordinates": [-64.10397464531096, 22.646407040836063]}}, {"type": "Feature", "properties": {"norad_id": 38091, "name": "BEIDOU-2 G5 (C05)", "group": "beidou", "lat": -1.0855180235340771, "lon": -89.21700927773946, "alt_km": 35738.182877285595, "timestamp": "2025-12-08T08:59:01.030863+00:00", "meta": {"OBJECT_NAME": "BEIDOU-2 G5 (C05)", "OBJECT_ID": "2012-008A", "EPOCH": "2025-12-07T22:49:38.694720", "MEAN_MOTION": 1.00273933, "ECCENTRICITY": 0.00125361, "INCLINATION": 3.0971, "RA_OF_ASC_NODE": 70.7238, "ARG_OF_PERICENTER": 226.7422, "MEAN_ANOMALY": 180.645, "EPHEMERIS_TYPE": 0, "CLASSIFICATION_TYPE": "U", "NORAD_CAT_ID": 38091, "ELEMENT_SET_NO": 999, "REV_AT_EPOCH": 5045, "BSTAR": 0, "MEAN_MOTION_DOT": 5.8e-07, "MEAN_MOTION_DDOT": 0}, "tle": {"line1": "1 38091U 12008A   25341.95114230  .00000058  00000+0  00000+0 0  9993", "line2": "2 38091   3.0971  70.7238 0012536 226.7422 180.6450  1.00273933 50458"}}, "geometry": {"type": "Point", "coordinates": [-89.21700927773946, -1.0855180235340771]}}, {"type": "Feature", "properties": {"norad_id": 38250, "name": "BEIDOU-2 M3 (C11)", "group": "beidou", "lat": -38.94834247577657, "lon": 164.43176540623122, "alt_km": 21484.233577826388, "timestamp": "2025-12-08T08:59:01.030875+00:00", "meta": {"OBJECT_NAME": "BEIDOU-2 M3 (C11)", "OBJECT_ID": "2012-018A", "EPOCH": "2025-12-05T21:12:32.531040", "MEAN_MOTION": 1.86229708, "ECCENTRICITY": 0.00244284, "INCLINATION": 55.926, "RA_OF_ASC_NODE": 311.388, "ARG_OF_PERICENTER": 273.8805, "MEAN_ANOMALY": 85.8231, "EPHEMERIS_TYPE": 0, "CLASSIFICATION_TYPE": "U", "NORAD_CAT_ID": 38250, "ELEMENT_SET_NO": 999, "REV_AT_EPOCH": 9234, "BSTAR": 0, "MEAN_MOTION_DOT": -7e-07, "MEAN_MOTION_DDOT": 0}, "tle": {"line1": "1 38250U 12018A   25339.88370985 -.00000070  00000+0  00000+0 0  9996", "line2": "2 38250  55.9260 311.3880 0024428 273.8805  85.8231  1.86229708 92342"}}, "geometry": {"type": "Point", "coordinates": [164.43176540623122, -38.94834247577657]}}, {"type": "Feature", "properties": {"norad_id": 38251, "name": "BEIDOU-2 M4 (C12)", "group": "beidou", "lat": -55.47856410590863, "lon": -130.27899903821665, "alt_km": 21490.715418375083, "timestamp": "2025-12-08T08:59:01.030887+00:00", "meta": {"OBJECT_NAME": "BEIDOU-2 M4 (C12)", "OBJECT_ID": "2012-018B", "EPOCH": "2025-12-06T21:21:07.920864", "MEAN_MOTION": 1.86229417, "ECCENTRICITY": 0.00155481, "INCLINATION": 55.8267, "RA_OF_ASC_NODE": 310.5837, "ARG_OF_PERICENTER": 277.2746, "MEAN_ANOMALY": 82.5325, "EPHEMERIS_TYPE": 0, "CLASSIFICATION_TYPE": "U", "NORAD_CAT_ID": 38251, "ELEMENT_SET_NO": 999, "REV_AT_EPOCH": 9236, "BSTAR": 0, "MEAN_MOTION_DOT": -7e-07, "MEAN_MOTION_DDOT": 0}, "tle": {"line1": "1 38251U 12018B   25340.88967501 -.00000070  00000+0  00000+0 0  9995", "line2": "2 38251  55.8267 310.5837 0015548 277.2746  82.5325  1.86229417 92364"}}, "geometry": {"type": "Point", "coordinates": [-130.27899903821665, -55.47856410590863]}}, {"type": "Feature", "properties": {"norad_id": 38775, "name": "BEIDOU-2 M6 (C14)", "group": "beidou", "lat": 51.83511959841401, "lon": -168.50005735671945, "alt_km": 21538.86002492644, "timestamp": "2025-12-08T08:59:01.030898+00:00", "meta": {"OBJECT_NAME": "BEIDOU-2 M6 (C14)", "OBJECT_ID": "2012-050B", "EPOCH": "2025-12-06T01:31:40.709568", "MEAN_MOTION": 1.86230702, "ECCENTRICITY": 0.00109743, "INCLINATION": 56.3728, "RA_OF_ASC_NODE": 69.289, "ARG_OF_PERICENTER": 345.7667, "MEAN_ANOMALY": 14.2153, "EPHEMERIS_TYPE": 0, "CLASSIFICATION_TYPE": "U", "NORAD_CAT_ID": 38775, "ELEMENT_SET_NO": 999, "REV_AT_EPOCH": 8971, "BSTAR": 0, "MEAN_MOTION_DOT": -4.7e-07, "MEAN_MOTION_DDOT": 0}, "tle": {"line1": "1 38775U 12050B   25340.06366562 -.00000047  00000+0  00000+0 0  9996", "line2": "2 38775  56.3728  69.2890 0010974 345.7667  14.2153  1.86230702 89716"}}, "geometry": {"type": "Point", "coordinates": [-168.50005735671945, 51.83511959841401]}}]}